start=new Date('2022-05-26T00:00:00.000Z').valueOf();
sats=[{"COUNTRY_CODE":"US","BSTAR":"-0.00001233100000","PERIOD":"95.437","MEAN_ANOMALY":"305.4167","RA_OF_ASC_NODE":"31.3686","SITE":"AFETR","OBJECT_ID":"2022-005X","SEMIMAJOR_AXIS":"6917.839","TLE_LINE2":"2 51125  53.2181  31.3686 0001937  54.7006 305.4167 15.08853689 19813","LAUNCH_DATE":"2022-01-19","ARG_OF_PERICENTER":"54.7006","ECCENTRICITY":"0.00019370","MEAN_MOTION_DOT":"-0.00000485","MEAN_MOTION":"15.08853689","OBJECT_TYPE":"PAYLOAD","INCLINATION":"53.2181","PERIAPSIS":"538.364","OBJECT_NAME":"STARLINK-3387","DECAY_DATE":null,"ELEMENT_SET_NO":"999","EPHEMERIS_TYPE":"0","RCS_SIZE":"LARGE","APOAPSIS":"541.044","REV_AT_EPOCH":"1981","MEAN_ELEMENT_THEORY":"SGP4","REF_FRAME":"TEME","MEAN_MOTION_DDOT":"0.0000000000000","CLASSIFICATION_TYPE":"U","EPOCH":"2022-05-25T20:41:21.545952","FILE":"3464394","NORAD_CAT_ID":"51125","TIME_SYSTEM":"UTC","GP_ID":"204539783","TLE_LINE1":"1 51125U 22005X   22145.86205493 -.00000485  00000-0 -12331-4 0  9997","CENTER_NAME":"EARTH"},{"NORAD_CAT_ID":"51126","TIME_SYSTEM":"UTC","GP_ID":"204540034","CENTER_NAME":"EARTH","TLE_LINE1":"1 51126U 22005Y   22145.86942073  .00000475  00000-0  47941-4 0  9992","APOAPSIS":"541.320","RCS_SIZE":"LARGE","EPHEMERIS_TYPE":"0","REV_AT_EPOCH":"1983","REF_FRAME":"TEME","MEAN_ELEMENT_THEORY":"SGP4","CLASSIFICATION_TYPE":"U","MEAN_MOTION_DDOT":"0.0000000000000","EPOCH":"2022-05-25T20:51:57.951072","FILE":"3464394","TLE_LINE2":"2 51126  53.2214  31.3214 0002282  42.8290 317.2880 15.08841190 19834","LAUNCH_DATE":"2022-01-19","MEAN_MOTION_DOT":"0.00000475","ARG_OF_PERICENTER":"42.8290","ECCENTRICITY":"0.00022820","MEAN_MOTION":"15.08841190","OBJECT_TYPE":"PAYLOAD","PERIAPSIS":"538.163","INCLINATION":"53.2214","DECAY_DATE":null,"OBJECT_NAME":"STARLINK-3386","ELEMENT_SET_NO":"999","COUNTRY_CODE":"US","BSTAR":"0.00004794100000","PERIOD":"95.437","MEAN_ANOMALY":"317.2880","RA_OF_ASC_NODE":"31.3214","OBJECT_ID":"2022-005Y","SITE":"AFETR","SEMIMAJOR_AXIS":"6917.877"},{"EPOCH":"2022-05-25T20:46:39.532512","FILE":"3464394","RCS_SIZE":"LARGE","APOAPSIS":"540.768","EPHEMERIS_TYPE":"0","REV_AT_EPOCH":"1982","REF_FRAME":"TEME","MEAN_ELEMENT_THEORY":"SGP4","CLASSIFICATION_TYPE":"U","MEAN_MOTION_DDOT":"0.0000000000000","GP_ID":"204538782","CENTER_NAME":"EARTH","TLE_LINE1":"1 51127U 22005Z   22145.86573533  .00000434  00000-0  45356-4 0  9997","NORAD_CAT_ID":"51127","TIME_SYSTEM":"UTC","SITE":"AFETR","OBJECT_ID":"2022-005Z","SEMIMAJOR_AXIS":"6917.875","COUNTRY_CODE":"US","BSTAR":"0.00004535600000","RA_OF_ASC_NODE":"31.3361","PERIOD":"95.437","MEAN_ANOMALY":"307.5178","OBJECT_TYPE":"PAYLOAD","PERIAPSIS":"538.712","INCLINATION":"53.2204","DECAY_DATE":null,"OBJECT_NAME":"STARLINK-3370","ELEMENT_SET_NO":"999","LAUNCH_DATE":"2022-01-19","TLE_LINE2":"2 51127  53.2204  31.3361 0001486  52.5950 307.5178 15.08841617 19828","MEAN_MOTION_DOT":"0.00000434","ARG_OF_PERICENTER":"52.5950","ECCENTRICITY":"0.00014860","MEAN_MOTION":"15.08841617"},{"INCLINATION":"53.2206","PERIAPSIS":"538.532","OBJECT_TYPE":"PAYLOAD","ELEMENT_SET_NO":"999","OBJECT_NAME":"STARLINK-3400","DECAY_DATE":null,"TLE_LINE2":"2 51128  53.2206  31.1384 0001777  52.8802 307.2352 15.08834782 19822","LAUNCH_DATE":"2022-01-19","MEAN_MOTION":"15.08834782","ECCENTRICITY":"0.00017770","ARG_OF_PERICENTER":"52.8802","MEAN_MOTION_DOT":"0.00000706","SEMIMAJOR_AXIS":"6917.896","OBJECT_ID":"2022-005AA","SITE":"AFETR","BSTAR":"0.00006244400000","COUNTRY_CODE":"US","PERIOD":"95.438","RA_OF_ASC_NODE":"31.1384","MEAN_ANOMALY":"307.2352","GP_ID":"204539032","TLE_LINE1":"1 51128U 22005AA  22145.91357419  .00000706  00000-0  62444-4 0  9996","CENTER_NAME":"EARTH","NORAD_CAT_ID":"51128","TIME_SYSTEM":"UTC","EPOCH":"2022-05-25T21:55:32.810016","FILE":"3464394","REV_AT_EPOCH":"1982","EPHEMERIS_TYPE":"0","RCS_SIZE":"LARGE","APOAPSIS":"540.991","MEAN_MOTION_DDOT":"0.0000000000000","CLASSIFICATION_TYPE":"U","MEAN_ELEMENT_THEORY":"SGP4","REF_FRAME":"TEME"},{"ARG_OF_PERICENTER":"45.7341","ECCENTRICITY":"0.00018670","MEAN_MOTION_DOT":"0.00006747","MEAN_MOTION":"15.08832584","TLE_LINE2":"2 51129  53.2192  31.1197 0001867  45.7341 185.9341 15.08832584 20951","LAUNCH_DATE":"2022-01-19","OBJECT_NAME":"STARLINK-3396","DECAY_DATE":null,"ELEMENT_SET_NO":"999","OBJECT_TYPE":"PAYLOAD","INCLINATION":"53.2192","PERIAPSIS":"538.476","PERIOD":"95.438","RA_OF_ASC_NODE":"31.1197","MEAN_ANOMALY":"185.9341","COUNTRY_CODE":"US","BSTAR":"0.00044166000000","OBJECT_ID":"2022-005AB","SITE":"AFETR","SEMIMAJOR_AXIS":"6917.903","TIME_SYSTEM":"UTC","NORAD_CAT_ID":"51129","TLE_LINE1":"1 51129U 22005AB  22145.91667824  .00006747  00000-0  44166-3 0  9992","CENTER_NAME":"EARTH","GP_ID":"204511112","MEAN_ELEMENT_THEORY":"SGP4","REF_FRAME":"TEME","MEAN_MOTION_DDOT":"0.0000000000000","CLASSIFICATION_TYPE":"U","EPHEMERIS_TYPE":"0","RCS_SIZE":"LARGE","APOAPSIS":"541.060","REV_AT_EPOCH":"2095","FILE":"3464180","EPOCH":"2022-05-25T22:00:00.999936"},{"SITE":"AFETR","OBJECT_ID":"2022-005AC","SEMIMAJOR_AXIS":"6917.908","PERIOD":"95.438","RA_OF_ASC_NODE":"31.3860","MEAN_ANOMALY":"304.8644","COUNTRY_CODE":"US","BSTAR":"-0.00001423600000","DECAY_DATE":null,"OBJECT_NAME":"STARLINK-3395","ELEMENT_SET_NO":"999","OBJECT_TYPE":"PAYLOAD","PERIAPSIS":"538.554","INCLINATION":"53.2187","MEAN_MOTION_DOT":"-0.00000515","ARG_OF_PERICENTER":"55.2514","ECCENTRICITY":"0.00017610","MEAN_MOTION":"15.08831079","LAUNCH_DATE":"2022-01-19","TLE_LINE2":"2 51130  53.2187  31.3860 0001761  55.2514 304.8644 15.08831079 19816","FILE":"3464394","EPOCH":"2022-05-25T20:36:04.247136","REF_FRAME":"TEME","MEAN_ELEMENT_THEORY":"SGP4","CLASSIFICATION_TYPE":"U","MEAN_MOTION_DDOT":"0.0000000000000","APOAPSIS":"540.991","RCS_SIZE":"LARGE","EPHEMERIS_TYPE":"0","REV_AT_EPOCH":"1981","CENTER_NAME":"EARTH","TLE_LINE1":"1 51130U 22005AC  22145.85838249 -.00000515  00000-0 -14236-4 0  9993","GP_ID":"204540535","TIME_SYSTEM":"UTC","NORAD_CAT_ID":"51130"},{"ELEMENT_SET_NO":"999","OBJECT_NAME":"STARLINK-3388","DECAY_DATE":null,"INCLINATION":"53.2202","PERIAPSIS":"538.496","OBJECT_TYPE":"PAYLOAD","MEAN_MOTION":"15.08836066","ECCENTRICITY":"0.00018230","ARG_OF_PERICENTER":"60.4671","MEAN_MOTION_DOT":"0.00000305","TLE_LINE2":"2 51131  53.2202  31.4237 0001823  60.4671 299.6503 15.08836066 19811","LAUNCH_DATE":"2022-01-19","SEMIMAJOR_AXIS":"6917.892","OBJECT_ID":"2022-005AD","SITE":"AFETR","MEAN_ANOMALY":"299.6503","PERIOD":"95.438","RA_OF_ASC_NODE":"31.4237","BSTAR":"0.00003728000000","COUNTRY_CODE":"US","TLE_LINE1":"1 51131U 22005AD  22145.85102486  .00000305  00000-0  37280-4 0  9990","CENTER_NAME":"EARTH","GP_ID":"204539283","TIME_SYSTEM":"UTC","NORAD_CAT_ID":"51131","FILE":"3464394","EPOCH":"2022-05-25T20:25:28.547904","MEAN_MOTION_DDOT":"0.0000000000000","CLASSIFICATION_TYPE":"U","MEAN_ELEMENT_THEORY":"SGP4","REF_FRAME":"TEME","REV_AT_EPOCH":"1981","EPHEMERIS_TYPE":"0","RCS_SIZE":"LARGE","APOAPSIS":"541.019"},{"EPOCH":"2022-05-25T20:30:46.924128","FILE":"3464394","APOAPSIS":"541.077","RCS_SIZE":"LARGE","EPHEMERIS_TYPE":"0","REV_AT_EPOCH":"1981","REF_FRAME":"TEME","MEAN_ELEMENT_THEORY":"SGP4","CLASSIFICATION_TYPE":"U","MEAN_MOTION_DDOT":"0.0000000000000","GP_ID":"204539533","CENTER_NAME":"EARTH","TLE_LINE1":"1 51132U 22005AE  22145.85470977  .00004492  00000-0  30035-3 0  9995","NORAD_CAT_ID":"51132","TIME_SYSTEM":"UTC","OBJECT_ID":"2022-005AE","SITE":"AFETR","SEMIMAJOR_AXIS":"6917.966","COUNTRY_CODE":"US","BSTAR":"0.00030035000000","MEAN_ANOMALY":"298.2426","PERIOD":"95.439","RA_OF_ASC_NODE":"31.4035","OBJECT_TYPE":"PAYLOAD","PERIAPSIS":"538.585","INCLINATION":"53.2190","DECAY_DATE":null,"OBJECT_NAME":"STARLINK-3393","ELEMENT_SET_NO":"999","TLE_LINE2":"2 51132  53.2190  31.4035 0001801  61.8748 298.2426 15.08812003 19814","LAUNCH_DATE":"2022-01-19","MEAN_MOTION_DOT":"0.00004492","ARG_OF_PERICENTER":"61.8748","ECCENTRICITY":"0.00018010","MEAN_MOTION":"15.08812003"},{"OBJECT_TYPE":"PAYLOAD","INCLINATION":"53.2193","PERIAPSIS":"538.578","OBJECT_NAME":"STARLINK-3356","DECAY_DATE":null,"ELEMENT_SET_NO":"999","LAUNCH_DATE":"2022-01-19","TLE_LINE2":"2 51133  53.2193  31.1557 0001708  67.1222 292.9950 15.08835199 19821","ECCENTRICITY":"0.00017080","ARG_OF_PERICENTER":"67.1222","MEAN_MOTION_DOT":"-0.00000214","MEAN_MOTION":"15.08835199","OBJECT_ID":"2022-005AF","SITE":"AFETR","SEMIMAJOR_AXIS":"6917.895","COUNTRY_CODE":"US","BSTAR":"0.00000467230000","PERIOD":"95.438","MEAN_ANOMALY":"292.9950","RA_OF_ASC_NODE":"31.1557","GP_ID":"204539784","TLE_LINE1":"1 51133U 22005AF  22145.90990479 -.00000214  00000-0  46723-5 0  9998","CENTER_NAME":"EARTH","NORAD_CAT_ID":"51133","TIME_SYSTEM":"UTC","EPOCH":"2022-05-25T21:50:15.773856","FILE":"3464394","EPHEMERIS_TYPE":"0","APOAPSIS":"540.942","RCS_SIZE":"LARGE","REV_AT_EPOCH":"1982","MEAN_ELEMENT_THEORY":"SGP4","REF_FRAME":"TEME","MEAN_MOTION_DDOT":"0.0000000000000","CLASSIFICATION_TYPE":"U"},{"TLE_LINE2":"2 51134  53.2175  21.2950 0001774  54.0859 306.0300 15.13262543 19978","LAUNCH_DATE":"2022-01-19","MEAN_MOTION_DOT":"-0.00107098","ECCENTRICITY":"0.00017740","ARG_OF_PERICENTER":"54.0859","MEAN_MOTION":"15.13262543","OBJECT_TYPE":"PAYLOAD","PERIAPSIS":"525.036","INCLINATION":"53.2175","DECAY_DATE":null,"OBJECT_NAME":"STARLINK-3183","ELEMENT_SET_NO":"999","COUNTRY_CODE":"US","BSTAR":"-0.00602530000000","MEAN_ANOMALY":"306.0300","PERIOD":"95.159","RA_OF_ASC_NODE":"21.2950","OBJECT_ID":"2022-005AG","SITE":"AFETR","SEMIMAJOR_AXIS":"6904.395","NORAD_CAT_ID":"51134","TIME_SYSTEM":"UTC","GP_ID":"204540035","CENTER_NAME":"EARTH","TLE_LINE1":"1 51134U 22005AG  22145.88418514 -.00107098  00000-0 -60253-2 0  9991","RCS_SIZE":"LARGE","APOAPSIS":"527.485","EPHEMERIS_TYPE":"0","REV_AT_EPOCH":"1997","REF_FRAME":"TEME","MEAN_ELEMENT_THEORY":"SGP4","CLASSIFICATION_TYPE":"U","MEAN_MOTION_DDOT":"0.0000000000000","EPOCH":"2022-05-25T21:13:13.596096","FILE":"3464394"}];
